{
  "type": "FeatureCollection",
  "features": [
    {
      "type": "Feature",
      "properties": {
        "norad_id": 55973,
        "name": "TIANMU-1 03",
        "group": "weather",
        "lat": 5.271102299191495,
        "lon": -21.25023157288578,
        "alt_km": 447.16112264364983,
        "timestamp": "2025-12-21T03:56:50.501470+00:00",
        "meta_object_name": "TIANMU-1 03",
        "meta_object_id": "2023-039A",
        "meta_epoch": "2025-12-20T19:24:03.894624",
        "meta_mean_motion": 15.41141447,
        "meta_eccentricity": 0.0004032,
        "meta_inclination": 97.5105,
        "meta_ra_of_asc_node": 157.6863,
        "meta_arg_of_pericenter": 37.8884,
        "meta_mean_anomaly": 322.2645,
        "meta_ephemeris_type": 0,
        "meta_classification_type": "U",
        "meta_norad_cat_id": 55973,
        "meta_element_set_no": 999,
        "meta_rev_at_epoch": 15330,
        "meta_bstar": 0.00026448,
        "meta_mean_motion_dot": 0.00010874,
        "meta_mean_motion_ddot": 0,
        "tle_line1": "1 55973U 23039A   25354.80837841  .00010874  00000+0  26448-3 0  9990",
        "tle_line2": "2 55973  97.5105 157.6863 0004032  37.8884 322.2645 15.41141447153309"
      },
      "geometry": {
        "type": "Point",
        "coordinates": [
          -21.25023157288578,
          5.271102299191495
        ]
      }
    },
    {
      "type": "Feature",
      "properties": {
        "norad_id": 55974,
        "name": "TIANMU-1 04",
        "group": "weather",
        "lat": -60.465829347929436,
        "lon": 170.69334636398085,
        "alt_km": 449.0049911967226,
        "timestamp": "2025-12-21T03:56:50.501479+00:00",
        "meta_object_name": "TIANMU-1 04",
        "meta_object_id": "2023-039B",
        "meta_epoch": "2025-12-20T20:25:23.763936",
        "meta_mean_motion": 15.4148299,
        "meta_eccentricity": 0.0004633,
        "meta_inclination": 97.5037,
        "meta_ra_of_asc_node": 156.9179,
        "meta_arg_of_pericenter": 31.7676,
        "meta_mean_anomaly": 328.385,
        "meta_ephemeris_type": 0,
        "meta_classification_type": "U",
        "meta_norad_cat_id": 55974,
        "meta_element_set_no": 999,
        "meta_rev_at_epoch": 15331,
        "meta_bstar": 0.00024421,
        "meta_mean_motion_dot": 0.00010148,
        "meta_mean_motion_ddot": 0,
        "tle_line1": "1 55974U 23039B   25354.85096949  .00010148  00000+0  24421-3 0  9995",
        "tle_line2": "2 55974  97.5037 156.9179 0004633  31.7676 328.3850 15.41482990153312"
      },
      "geometry": {
        "type": "Point",
        "coordinates": [
          170.69334636398085,
          -60.465829347929436
        ]
      }
    },
    {
      "type": "Feature",
      "properties": {
        "norad_id": 55975,
        "name": "TIANMU-1 05",
        "group": "weather",
        "lat": -40.61655782958489,
        "lon": 164.22756661594877,
        "alt_km": 449.7648081081725,
        "timestamp": "2025-12-21T03:56:50.501489+00:00",
        "meta_object_name": "TIANMU-1 05",
        "meta_object_id": "2023-039C",
        "meta_epoch": "2025-12-20T20:20:00.269376",
        "meta_mean_motion": 15.41099485,
        "meta_eccentricity": 0.0004093,
        "meta_inclination": 97.5084,
        "meta_ra_of_asc_node": 157.4067,
        "meta_arg_of_pericenter": 56.3749,
        "meta_mean_anomaly": 303.7888,
        "meta_ephemeris_type": 0,
        "meta_classification_type": "U",
        "meta_norad_cat_id": 55975,
        "meta_element_set_no": 999,
        "meta_rev_at_epoch": 15329,
        "meta_bstar": 0.00024637,
        "meta_mean_motion_dot": 0.00010108,
        "meta_mean_motion_ddot": 0,
        "tle_line1": "1 55975U 23039C   25354.84722534  .00010108  00000+0  24637-3 0  9996",
        "tle_line2": "2 55975  97.5084 157.4067 0004093  56.3749 303.7888 15.41099485153299"
      },
      "geometry": {
        "type": "Point",
        "coordinates": [
          164.22756661594877,
          -40.61655782958489
        ]
      }
    },
    {
      "type": "Feature",
      "properties": {
        "norad_id": 55976,
        "name": "TIANMU-1 06",
        "group": "weather",
        "lat": -70.36256273425919,
        "lon": 179.90138753198906,
        "alt_km": 450.4106835285893,
        "timestamp": "2025-12-21T03:56:50.501500+00:00",
        "meta_object_name": "TIANMU-1 06",
        "meta_object_id": "2023-039D",
        "meta_epoch": "2025-12-20T20:28:08.178816",
        "meta_mean_motion": 15.4153474,
        "meta_eccentricity": 0.000439,
        "meta_inclination": 97.5094,
        "meta_ra_of_asc_node": 157.8844,
        "meta_arg_of_pericenter": 50.4314,
        "meta_mean_anomaly": 309.732,
        "meta_ephemeris_type": 0,
        "meta_classification_type": "U",
        "meta_norad_cat_id": 55976,
        "meta_element_set_no": 999,
        "meta_rev_at_epoch": 15331,
        "meta_bstar": 0.00024468,
        "meta_mean_motion_dot": 0.00010185,
        "meta_mean_motion_ddot": 0,
        "tle_line1": "1 55976U 23039D   25354.85287244  .00010185  00000+0  24468-3 0  9999",
        "tle_line2": "2 55976  97.5094 157.8844 0004390  50.4314 309.7320 15.41534740153319"
      },
      "geometry": {
        "type": "Point",
        "coordinates": [
          179.90138753198906,
          -70.36256273425919
        ]
      }
    },
    {
      "type": "Feature",
      "properties": {
        "norad_id": 56232,
        "name": "FENGYUN 3G",
        "group": "weather",
        "lat": 49.94860428504614,
        "lon": -83.74151615831649,
        "alt_km": 398.223223738426,
        "timestamp": "2025-12-21T03:56:50.501509+00:00",
        "meta_object_name": "FENGYUN 3G",
        "meta_object_id": "2023-055A",
        "meta_epoch": "2025-12-20T21:22:57.703296",
        "meta_mean_motion": 15.54094619,
        "meta_eccentricity": 0.0009292,
        "meta_inclination": 49.9915,
        "meta_ra_of_asc_node": 185.3768,
        "meta_arg_of_pericenter": 185.2301,
        "meta_mean_anomaly": 174.8571,
        "meta_ephemeris_type": 0,
        "meta_classification_type": "U",
        "meta_norad_cat_id": 56232,
        "meta_element_set_no": 999,
        "meta_rev_at_epoch": 15229,
        "meta_bstar": 0.00034502,
        "meta_mean_motion_dot": 0.00022469,
        "meta_mean_motion_ddot": 0,
        "tle_line1": "1 56232U 23055A   25354.89094564  .00022469  00000+0  34502-3 0  9996",
        "tle_line2": "2 56232  49.9915 185.3768 0009292 185.2301 174.8571 15.54094619152293"
      },
      "geometry": {
        "type": "Point",
        "coordinates": [
          -83.74151615831649,
          49.94860428504614
        ]
      }
    },
    {
      "type": "Feature",
      "properties": {
        "norad_id": 57166,
        "name": "METEOR-M2 3",
        "group": "weather",
        "lat": -31.81245578308773,
        "lon": -136.85372418912306,
        "alt_km": 819.4275633103152,
        "timestamp": "2025-12-21T03:56:50.501519+00:00",
        "meta_object_name": "METEOR-M2 3",
        "meta_object_id": "2023-091A",
        "meta_epoch": "2025-12-20T20:12:31.887936",
        "meta_mean_motion": 14.24026948,
        "meta_eccentricity": 0.0003456,
        "meta_inclination": 98.6366,
        "meta_ra_of_asc_node": 48.2395,
        "meta_arg_of_pericenter": 344.4868,
        "meta_mean_anomaly": 15.6205,
        "meta_ephemeris_type": 0,
        "meta_classification_type": "U",
        "meta_norad_cat_id": 57166,
        "meta_element_set_no": 999,
        "meta_rev_at_epoch": 12913,
        "meta_bstar": 1.6575e-05,
        "meta_mean_motion_dot": -5e-08,
        "meta_mean_motion_ddot": 0,
        "tle_line1": "1 57166U 23091A   25354.84203574 -.00000005  00000+0  16575-4 0  9995",
        "tle_line2": "2 57166  98.6366  48.2395 0003456 344.4868  15.6205 14.24026948129136"
      },
      "geometry": {
        "type": "Point",
        "coordinates": [
          -136.85372418912306,
          -31.81245578308773
        ]
      }
    },
    {
      "type": "Feature",
      "properties": {
        "norad_id": 57399,
        "name": "TIANMU-1 07",
        "group": "weather",
        "lat": -48.440345557980464,
        "lon": 53.126693226289554,
        "alt_km": 489.3183565340396,
        "timestamp": "2025-12-21T03:56:50.501528+00:00",
        "meta_object_name": "TIANMU-1 07",
        "meta_object_id": "2023-101A",
        "meta_epoch": "2025-12-20T20:18:13.359744",
        "meta_mean_motion": 15.28176965,
        "meta_eccentricity": 0.0005282,
        "meta_inclination": 97.2865,
        "meta_ra_of_asc_node": 44.5172,
        "meta_arg_of_pericenter": 60.8648,
        "meta_mean_anomaly": 299.3119,
        "meta_ephemeris_type": 0,
        "meta_classification_type": "U",
        "meta_norad_cat_id": 57399,
        "meta_element_set_no": 999,
        "meta_rev_at_epoch": 13439,
        "meta_bstar": 0.00017907,
        "meta_mean_motion_dot": 4.846e-05,
        "meta_mean_motion_ddot": 0,
        "tle_line1": "1 57399U 23101A   25354.84598796  .00004846  00000+0  17907-3 0  9993",
        "tle_line2": "2 57399  97.2865  44.5172 0005282  60.8648 299.3119 15.28176965134398"
      },
      "geometry": {
        "type": "Point",
        "coordinates": [
          53.126693226289554,
          -48.440345557980464
        ]
      }
    }
  ]
}